     2              NAVIGATION DATA                         RINEX VERSION / TYPE
CCRINEXN V1.6.0 UX  CDDIS               17-DEC-15 19:41     PGM / RUN BY / DATE 
IGS BROADCAST EPHEMERIS FILE                                COMMENT             
    0.1583D-07 -0.7451D-08 -0.5960D-07  0.1192D-06          ION ALPHA           
    0.1290D+06 -0.2130D+06  0.6554D+05  0.3277D+06          ION BETA            
    0.372529029846D-08 0.106581410364D-13   589824     1875 DELTA-UTC: A0,A1,T,W
    17                                                      LEAP SECONDS        
                                                            END OF HEADER       
 1 15 12 17  8  0  0.0 0.684754922986D-05 0.909494701773D-12 0.000000000000D+00
    0.430000000000D+02-0.753437500000D+02 0.447875780907D-08 0.355840287228D+00
   -0.388920307159D-05 0.488363753539D-02 0.892393290997D-05 0.515366091537D+04
    0.374400000000D+06 0.372529029846D-08 0.721508130418D+00 0.521540641785D-07
    0.963418164336D+00 0.206062500000D+03 0.493157119071D+00-0.809855205119D-08
   -0.172507189089D-09 0.100000000000D+01 0.187500000000D+04 0.000000000000D+00
    0.200000000000D+01 0.000000000000D+00 0.512227416039D-08 0.430000000000D+02
    0.367230000000D+06 0.000000000000D+00 0.000000000000D+00 0.000000000000D+00
 2 15 12 17  8  0  0.0 0.598000828177D-03 0.568434188608D-12 0.000000000000D+00
    0.102000000000D+03-0.768437500000D+02 0.504556751935D-08 0.915107557903D+00
   -0.391341745853D-05 0.151109548751D-01 0.950321555138D-05 0.515368813324D+04
    0.374400000000D+06-0.152736902237D-06 0.679503082728D+00 0.149011611938D-06
    0.942147203801D+00 0.191718750000D+03-0.220196203608D+01-0.854535553429D-08
   -0.345371536925D-09 0.100000000000D+01 0.187500000000D+04 0.000000000000D+00
    0.200000000000D+01 0.000000000000D+00-0.204890966415D-07 0.102000000000D+03
    0.367140000000D+06 0.400000000000D+01 0.000000000000D+00 0.000000000000D+00
 3 15 12 17  8  0  0.0 0.111479312182D-05-0.522959453519D-11 0.000000000000D+00
    0.690000000000D+02 0.197500000000D+02 0.454554660578D-08 0.292761923916D+01
    0.936910510063D-06 0.395686132833D-03 0.967085361481D-05 0.515354220200D+04
    0.374400000000D+06-0.372529029846D-08 0.176265126836D+01-0.316649675369D-07
    0.958814564487D+00 0.193250000000D+03-0.309341816729D+01-0.800247601518D-08
    0.197508231992D-09 0.100000000000D+01 0.187500000000D+04 0.000000000000D+00
    0.200000000000D+01 0.000000000000D+00 0.186264514923D-08 0.690000000000D+02
    0.367230000000D+06 0.000000000000D+00 0.000000000000D+00 0.000000000000D+00
 5 15 12 17  8  0  0.0-0.164269935340D-03 0.363797880709D-11 0.000000000000D+00
    0.260000000000D+02 0.339062500000D+02 0.482091509618D-08-0.294782992787D+01
    0.169128179550D-05 0.455904135015D-02 0.103637576103D-04 0.515369912338D+04
    0.374400000000D+06 0.186264514923D-08 0.175291938285D+01 0.130385160446D-07
    0.945949541475D+00 0.173031250000D+03 0.482999647285D+00-0.811140930133D-08
    0.306441335940D-09 0.100000000000D+01 0.187500000000D+04 0.000000000000D+00
    0.200000000000D+01 0.000000000000D+00-0.107102096081D-07 0.260000000000D+02
    0.367218000000D+06 0.400000000000D+01 0.000000000000D+00 0.000000000000D+00
 6 15 12 17  8  0  0.0 0.113551039249D-03 0.648014975013D-11 0.000000000000D+00
    0.570000000000D+02-0.728437500000D+02 0.442696990177D-08 0.228619434140D+01
   -0.380910933018D-05 0.233636470512D-03 0.964477658272D-05 0.515360160255D+04
    0.374400000000D+06-0.298023223877D-07 0.713052250334D+00 0.447034835815D-07
    0.963279204674D+00 0.195812500000D+03-0.300216293940D+01-0.799926169748D-08
   -0.167506980508D-09 0.100000000000D+01 0.187500000000D+04 0.000000000000D+00
    0.200000000000D+01 0.000000000000D+00 0.419095158577D-08 0.570000000000D+02
    0.373620000000D+06 0.000000000000D+00 0.000000000000D+00 0.000000000000D+00
 8 15 12 17  8  0  0.0-0.165188685059D-04-0.147792889038D-11 0.000000000000D+00
    0.900000000000D+02-0.268125000000D+02 0.483377293747D-08-0.241670914692D+01
   -0.128708779812D-05 0.163656193763D-02 0.361353158951D-05 0.515361969757D+04
    0.374400000000D+06 0.931322574616D-08-0.337049642853D+00 0.949949026108D-07
    0.961750325081D+00 0.309312500000D+03-0.158006798998D+01-0.838392022473D-08
    0.112147527376D-09 0.100000000000D+01 0.187500000000D+04 0.000000000000D+00
    0.200000000000D+01 0.000000000000D+00 0.465661287308D-08 0.900000000000D+02
    0.367230000000D+06 0.000000000000D+00 0.000000000000D+00 0.000000000000D+00
 9 15 12 17  8  0  0.0 0.303005799651D-04 0.807176547823D-11 0.000000000000D+00
    0.800000000000D+02 0.227500000000D+02 0.484413043012D-08 0.243197526030D+01
    0.124610960484D-05 0.506500946358D-03 0.584684312344D-05 0.515367092895D+04
    0.374400000000D+06 0.558793544769D-08 0.280378861460D+01 0.167638063431D-07
    0.956182074124D+00 0.264250000000D+03 0.196306388423D+01-0.828427371147D-08
   -0.767889155040D-10 0.100000000000D+01 0.187500000000D+04 0.000000000000D+00
    0.200000000000D+01 0.000000000000D+00 0.931322574616D-09 0.800000000000D+02
    0.367230000000D+06 0.000000000000D+00 0.000000000000D+00 0.000000000000D+00
11 15 12 17  8  0  0.0-0.622174236923D-03-0.204636307899D-11 0.000000000000D+00
    0.103000000000D+03-0.817812500000D+02 0.629883389891D-08-0.204447762333D+00
   -0.418722629547D-05 0.162536803400D-01 0.644847750664D-05 0.515364427948D+04
    0.374400000000D+06-0.208616256714D-06 0.356168476807D+00 0.540167093277D-07
    0.895267800846D+00 0.220531250000D+03 0.148949542404D+01-0.930717369840D-08
   -0.108575953783D-09 0.100000000000D+01 0.187500000000D+04 0.000000000000D+00
    0.200000000000D+01 0.000000000000D+00-0.121071934700D-07 0.103000000000D+03
    0.367230000000D+06 0.000000000000D+00 0.000000000000D+00 0.000000000000D+00
13 15 12 17  8  0  0.0-0.171940773725D-03-0.272848410532D-11 0.000000000000D+00
    0.800000000000D+02 0.168437500000D+02 0.454626079858D-08 0.617931593503D+00
    0.845640897751D-06 0.465852057096D-02 0.613182783127D-05 0.515368039322D+04
    0.374400000000D+06-0.931322574616D-08 0.292197746194D+01-0.670552253723D-07
    0.972793839534D+00 0.266812500000D+03 0.200902166928D+01-0.820427031222D-08
   -0.135362781260D-09 0.100000000000D+01 0.187500000000D+04 0.000000000000D+00
    0.200000000000D+01 0.000000000000D+00-0.111758708954D-07 0.800000000000D+02
    0.367218000000D+06 0.400000000000D+01 0.000000000000D+00 0.000000000000D+00
14 15 12 17  8  0  0.0 0.149668194354D-04-0.238742359215D-11 0.000000000000D+00
    0.440000000000D+02 0.233125000000D+02 0.457019036677D-08 0.247824804964D+01
    0.118091702461D-05 0.831810280215D-02 0.596418976784D-05 0.515369238091D+04
    0.374400000000D+06 0.558793544769D-07 0.288601521974D+01-0.968575477600D-07
    0.965261820012D+00 0.264000000000D+03-0.194808406831D+01-0.801319092442D-08
   -0.507163982558D-10 0.000000000000D+00 0.187500000000D+04 0.000000000000D+00
    0.200000000000D+01 0.000000000000D+00-0.931322574616D-08 0.440000000000D+02
    0.367200000000D+06 0.400000000000D+01 0.000000000000D+00 0.000000000000D+00
15 15 12 17  8  0  0.0-0.287590082735D-03-0.193267624127D-11 0.000000000000D+00
    0.460000000000D+02 0.288437500000D+02 0.552630162122D-08 0.171946235860D+01
    0.154599547386D-05 0.790412793867D-02 0.590644776821D-05 0.515376245880D+04
    0.374400000000D+06-0.968575477600D-07 0.275523340388D+01 0.558793544769D-07
    0.931933359931D+00 0.252312500000D+03 0.453230465428D+00-0.864571727168D-08
   -0.107147320259D-09 0.100000000000D+01 0.187500000000D+04 0.000000000000D+00
    0.200000000000D+01 0.000000000000D+00-0.107102096081D-07 0.460000000000D+02
    0.368388000000D+06 0.400000000000D+01 0.000000000000D+00 0.000000000000D+00
16 15 12 17  8  0  0.0-0.566462986171D-04 0.341060513165D-11 0.000000000000D+00
    0.130000000000D+02 0.466562500000D+02 0.389623355801D-08-0.276494276338D+01
    0.238977372646D-05 0.828445632942D-02 0.818073749542D-05 0.515367439079D+04
    0.374400000000D+06-0.109896063805D-06-0.131051674655D+01-0.141561031342D-06
    0.990586056948D+00 0.240218750000D+03 0.313511552820D+00-0.771996422344D-08
    0.267868310866D-09 0.100000000000D+01 0.187500000000D+04 0.000000000000D+00
    0.200000000000D+01 0.000000000000D+00-0.102445483208D-07 0.130000000000D+02
    0.367230000000D+06 0.000000000000D+00 0.000000000000D+00 0.000000000000D+00
17 15 12 17  8  0  0.0-0.196766573936D-03-0.102318153950D-11 0.000000000000D+00
    0.270000000000D+02-0.428437500000D+02 0.441054082145D-08 0.254229602950D+01
   -0.232644379139D-05 0.108108987333D-01 0.382028520107D-05 0.515360907173D+04
    0.374400000000D+06 0.670552253723D-07-0.286690475660D+00-0.171363353729D-06
    0.974922922230D+00 0.310500000000D+03-0.198254522782D+01-0.803247779402D-08
   -0.414302966933D-10 0.100000000000D+01 0.187500000000D+04 0.000000000000D+00
    0.200000000000D+01 0.000000000000D+00-0.107102096081D-07 0.270000000000D+02
    0.369600000000D+06 0.000000000000D+00 0.000000000000D+00 0.000000000000D+00
18 15 12 17  8  0  0.0 0.463521573693D-03 0.375166564481D-11 0.000000000000D+00
    0.200000000000D+02 0.196562500000D+02 0.513592821774D-08-0.219809496867D+01
    0.981613993645D-06 0.164234553231D-01 0.102799385786D-04 0.515365073204D+04
    0.374400000000D+06 0.257045030594D-06 0.173534682258D+01-0.875443220139D-07
    0.924565681700D+00 0.159562500000D+03-0.192495532616D+01-0.801461955536D-08
    0.348228790841D-09 0.000000000000D+00 0.187500000000D+04 0.000000000000D+00
    0.200000000000D+01 0.000000000000D+00-0.111758708954D-07 0.200000000000D+02
    0.367200000000D+06 0.400000000000D+01 0.000000000000D+00 0.000000000000D+00
